NUSAT-48 (HENRIETTA LE*)
1 60498U 24149AG  26068.80506098  .00012988  00000+0  45212-3 0  9999
2 60498  97.3923 150.8264 0002754 263.3026  96.7901 15.29812597 86946
STARLINK-36083          
1 66857U 25281K   26068.17580273  .00035151  00000+0  12797-2 0  9997
2 66857  43.0038 346.6606 0001277 277.8070  82.2637 15.27607923 16109
